[{"OBJECT_NAME":"STARLINK-4416","OBJECT_ID":"2022-084Z","EPOCH":"2026-03-09T17:01:49.872864","MEAN_MOTION":15.05644818,"ECCENTRICITY":7.226e-5,"INCLINATION":97.6036,"RA_OF_ASC_NODE":131.2322,"ARG_OF_PERICENTER":136.2478,"MEAN_ANOMALY":223.8806,"EPHEMERIS_TYPE":0,"CLASSIFICATION_TYPE":"U","NORAD_CAT_ID":53212,"ELEMENT_SET_NO":999,"REV_AT_EPOCH":19937,"BSTAR":3.3266858e-5,"MEAN_MOTION_DOT":4.19e-6,"MEAN_MOTION_DDOT":0},{"OBJECT_NAME":"CZ-6A DEB","OBJECT_ID":"2024-140NJ","EPOCH":"2026-03-09T15:30:01.982592","MEAN_MOTION":15.1004937,"ECCENTRICITY":0.00567225,"INCLINATION":88.9288,"RA_OF_ASC_NODE":275.3548,"ARG_OF_PERICENTER":176.1403,"MEAN_ANOMALY":184.0287,"EPHEMERIS_TYPE":0,"CLASSIFICATION_TYPE":"U","NORAD_CAT_ID":61092,"ELEMENT_SET_NO":999,"REV_AT_EPOCH":8278,"BSTAR":0.0051635532,"MEAN_MOTION_DOT":0.00088127,"MEAN_MOTION_DDOT":0}]
